NORAD_CAT_ID,OBJECT_NAME,OBJECT_TYPE,EPOCH,MEAN_MOTION,ECCENTRICITY,INCLINATION,RA_OF_ASC_NODE,ARG_OF_PERICENTER,MEAN_ANOMALY,BSTAR,MEAN_MOTION_DOT,MEAN_MOTION_DDOT,TLE_LINE0,TLE_LINE1,TLE_LINE2,SEMIMAJOR_AXIS,PERIOD,APOGEE,PERIGEE,DECAYED
52849.0,STARLINK-4197,PAYLOAD,2022-10-04 14:00:01,15.08841769,0.0002189999999999,53.2134,245.0382,26.8641,41.6281,-0.0020764,-0.00033185,0.0,0 STARLINK-4197,1 52849U 22062V   22277.58334491 -.00033185  00000-0 -20764-2 0  9990,2 52849  53.2134 245.0382 0002190  26.8641  41.6281 15.08841769  1306,6917.875,95.437,541.255,538.225,0.0
52849.0,STARLINK-4197,PAYLOAD,2022-10-04 22:00:00,15.08833258,0.0002112999999999,53.2135,243.541,31.8881,48.1849,-0.00049068,-8.088e-05,0.0,0 STARLINK-4197,1 52849U 22062V   22277.91667824 -.00008088  00000-0 -49068-3 0  9999,2 52849  53.2135 243.5410 0002113  31.8881  48.1849 15.08833258  1305,6917.901,95.438,541.2280000000002,538.304,0.0
52849.0,STARLINK-4197,PAYLOAD,2022-10-05 14:00:01,15.08822624,0.0002231999999999,53.2136,240.5487,29.1166,74.172,-0.0003618,-6.039e-05,0.0,0 STARLINK-4197,1 52849U 22062V   22278.58335648 -.00006039  00000-0 -36180-3 0  9994,2 52849  53.2136 240.5487 0002232  29.1166  74.1720 15.08822624  1307,6917.934,95.439,541.3430000000002,538.254,0.0
52849.0,STARLINK-4197,PAYLOAD,2022-10-05 22:00:00,15.088320800000002,0.0002194,53.2139,239.0516,34.5213,80.2721,-0.00098255,-0.00015889,0.0,0 STARLINK-4197,1 52849U 22062V   22278.91667824 -.00015889  00000-0 -98255-3 0  9999,2 52849  53.2139 239.0516 0002194  34.5213  80.2721 15.08832080  1302,6917.905,95.438,541.2869999999998,538.252,0.0
52849.0,STARLINK-4197,PAYLOAD,2022-10-06 06:00:00,15.08802881,0.0002440999999999,53.214,237.5569,33.2515,93.1241,0.0024831,0.00039413,0.0,0 STARLINK-4197,1 52849U 22062V   22279.25001157  .00039413  00000-0  24831-2 0  9993,2 52849  53.2140 237.5569 0002441  33.2515  93.1241 15.08802881 17641,6917.994000000002,95.44,541.548,538.17,0.0
52849.0,STARLINK-4197,PAYLOAD,2022-10-06 14:00:01,15.08860276,0.0002299999999999,53.2142,236.0593,33.353,104.5959,-0.0021055,-0.00033661,0.0,0 STARLINK-4197,1 52849U 22062V   22279.58334491 -.00033661  00000-0 -21055-2 0  9995,2 52849  53.2142 236.0593 0002300  33.3530 104.5959 15.08860276  1307,6917.818,95.436,541.275,538.092,0.0
52849.0,STARLINK-4197,PAYLOAD,2022-10-06 22:42:55,15.08848565,0.0002179,53.2146,234.4286,35.5186,275.9501,0.0012969,0.00020418,0.0,0 STARLINK-4197,1 52849U 22062V   22279.94646991  .00020418  00000-0  12969-2 0  9994,2 52849  53.2146 234.4286 0002179  35.5186 275.9501 15.08848565  1300,6917.854,95.437,541.227,538.212,0.0
52849.0,STARLINK-4197,PAYLOAD,2022-10-07 06:00:00,15.08858523,0.000234,53.2147,233.0674,30.6702,130.4985,-0.00099512,-0.00016099,0.0,0 STARLINK-4197,1 52849U 22062V   22280.25001157 -.00016099  00000-0 -99512-3 0  9991,2 52849  53.2147 233.0674 0002340  30.6702 130.4985 15.08858523 17793,6917.824000000001,95.436,541.308,538.07,0.0
52849.0,STARLINK-4197,PAYLOAD,2022-10-07 14:00:01,15.08838415,0.0002110999999999,53.2148,231.5696,29.5469,143.2371,-0.00095753,-0.00015495,0.0,0 STARLINK-4197,1 52849U 22062V   22280.58334491 -.00015495  00000-0 -95753-3 0  9999,2 52849  53.2148 231.5696 0002111  29.5469 143.2371 15.08838415  1303,6917.885,95.438,541.211,538.29,0.0
52849.0,STARLINK-4197,PAYLOAD,2022-10-07 22:00:00,15.08845207,0.0002066999999999,53.2153,230.0729,33.2008,151.1619,-0.0013516,-0.00021738,0.0,0 STARLINK-4197,1 52849U 22062V   22280.91667824 -.00021738  00000-0 -13516-2 0  9998,2 52849  53.2153 230.0729 0002067  33.2008 151.1619 15.08845207  1301,6917.864000000001,95.437,541.159,538.3,0.0
52849.0,STARLINK-4197,PAYLOAD,2022-10-08 14:00:01,15.08830787,0.0002085999999999,53.2153,227.0801,31.3225,176.22099999999998,-2.6164e-05,-7.05e-06,0.0,0 STARLINK-4197,1 52849U 22062V   22281.58334491 -.00000705  00000-0 -26164-4 0  9999,2 52849  53.2153 227.0801 0002086  31.3225 176.2210 15.08830787 17993,6917.909000000002,95.438,541.217,538.33,0.0
52849.0,STARLINK-4197,PAYLOAD,2022-10-08 22:00:00,15.08839219,0.0002041999999999,53.2156,225.5838,36.0433,183.0822,-0.00034011,-5.697e-05,0.0,0 STARLINK-4197,1 52849U 22062V   22281.91667824 -.00005697  00000-0 -34011-3 0  9999,2 52849  53.2156 225.5838 0002042  36.0433 183.0822 15.08839219  1306,6917.8830000000025,95.438,541.16,538.335,0.0
52849.0,STARLINK-4197,PAYLOAD,2022-10-09 14:00:01,15.08840992,0.0002026999999999,53.2154,222.5909,33.6942,208.6169,0.00067316,0.00010442,0.0,0 STARLINK-4197,1 52849U 22062V   22282.58334491  .00010442  00000-0  67316-3 0  9990,2 52849  53.2154 222.5909 0002027  33.6942 208.6169 15.08840992  1309,6917.877,95.437,541.145,538.34,0.0
52849.0,STARLINK-4197,PAYLOAD,2022-10-09 22:00:00,15.08899916,0.0002011,53.2166,221.0945,35.1319,218.7635,-0.011386,-0.00177366,0.0,0 STARLINK-4197,1 52849U 22062V   22282.91667824 -.00177366  00000-0 -11386-1 0  9991,2 52849  53.2166 221.0945 0002011  35.1319 218.7635 15.08899916 18199,6917.696999999999,95.434,540.953,538.1709999999998,0.0
52849.0,STARLINK-4197,PAYLOAD,2022-10-10 00:00:00,15.0884105,0.0002143,53.2169,220.7209,33.0801,313.7315,-0.0058419,-0.00092082,0.0,0 STARLINK-4197,1 52849U 22062V   22283.00001157 -.00092082  00000-0 -58419-2 0  9993,2 52849  53.2169 220.7209 0002143  33.0801 313.7315 15.08841050  1302,6917.877,95.437,541.225,538.26,0.0
52849.0,STARLINK-4197,PAYLOAD,2022-10-10 08:00:01,15.08828479,0.0002359,53.2171,219.2259,25.2902,333.059,0.00096377,0.00015079,0.0,0 STARLINK-4197,1 52849U 22062V   22283.33334491  .00015079  00000-0  96377-3 0  9994,2 52849  53.2171 219.2259 0002359  25.2902 333.0590 15.08828479 18259,6917.916,95.438,541.413,538.149,0.0
52849.0,STARLINK-4197,PAYLOAD,2022-10-10 14:00:01,15.08837158,0.0002278999999999,53.2176,218.1022,25.7214,251.3195,-3.7831e-05,-8.900000000000001e-06,0.0,0 STARLINK-4197,1 52849U 22062V   22283.58334491 -.00000890  00000-0 -37831-4 0  9999,2 52849  53.2176 218.1022 0002279  25.7214 251.3195 15.08837158  1307,6917.889,95.438,541.331,538.177,0.0
52849.0,STARLINK-4197,PAYLOAD,2022-10-10 16:00:00,15.08820943,0.0001865999999999,53.2156,217.7275,36.327,333.7074,0.0021881,0.00034689,0.0,0 STARLINK-4197,1 52849U 22062V   22283.66667824  .00034689  00000-0  21881-2 0  9994,2 52849  53.2156 217.7275 0001866  36.3270 333.7074 15.08820943 18304,6917.939,95.439,541.095,538.513,0.0
52849.0,STARLINK-4197,PAYLOAD,2022-10-10 22:00:01,15.0892427,0.0001933,53.2165,216.6053,33.8118,254.9596,-0.0177219999999999,-0.00272469,0.0,0 STARLINK-4197,1 52849U 22062V   22283.91668981 -.00272469  00000-0 -17722-1 0  9997,2 52849  53.2165 216.6053 0001933  33.8118 254.9596 15.08924270  1307,6917.623000000001,95.432,540.825,538.151,0.0
52849.0,STARLINK-4197,PAYLOAD,2022-10-11 06:00:00,15.08798365,0.0002163,53.2151,215.1111,35.0744,265.2214,0.0012444,0.0001955,0.0,0 STARLINK-4197,1 52849U 22062V   22284.25001157  .00019550  00000-0  12444-2 0  9996,2 52849  53.2151 215.1111 0002163  35.0744 265.2214 15.08798365 18399,6918.0080000000025,95.44,541.369,538.376,0.0
52849.0,STARLINK-4197,PAYLOAD,2022-10-11 14:00:01,15.08748162,0.0001882,53.2173,213.6131,36.0234,275.8388,0.0087628999999999,0.00141635,0.0,0 STARLINK-4197,1 52849U 22062V   22284.58334491  .00141635  00000-0  87629-2 0  9999,2 52849  53.2173 213.6131 0001882  36.0234 275.8388 15.08748162  1302,6918.161,95.443,541.328,538.724,0.0
52849.0,STARLINK-4197,PAYLOAD,2022-10-11 22:00:00,15.0883704,0.0001854,53.2176,212.117,37.0356,286.374,-8.0638e-06,-4.16e-06,0.0,0 STARLINK-4197,1 52849U 22062V   22284.91667824 -.00000416  00000-0 -80638-5 0  9994,2 52849  53.2176 212.1170 0001854  37.0356 286.3740 15.08837040  1300,6917.889,95.438,541.0369999999998,538.472,0.0
52849.0,STARLINK-4197,PAYLOAD,2022-10-12 14:00:01,15.08832488,0.0002019,53.216,209.1237,36.6498,309.935,0.0011193,0.00017567,0.0,0 STARLINK-4197,1 52849U 22062V   22285.58334491  .00017567  00000-0  11193-2 0  9999,2 52849  53.2160 209.1237 0002019  36.6498 309.9350 15.08832488 18598,6917.903,95.438,541.165,538.372,0.0
52849.0,STARLINK-4197,PAYLOAD,2022-10-12 22:00:00,15.08857194,0.0002095,53.2168,207.6275,33.2885,324.8875,-0.0019460999999999,-0.00031142,0.0,0 STARLINK-4197,1 52849U 22062V   22285.91667824 -.00031142  00000-0 -19461-2 0  9998,2 52849  53.2168 207.6275 0002095  33.2885 324.8875 15.08857194  1308,6917.828,95.436,541.1419999999998,538.244,0.0
52849.0,STARLINK-4197,PAYLOAD,2022-10-13 06:00:00,15.08800912,0.000224,53.2157,206.1334,35.352,334.3808,0.0065326,0.00105122,0.0,0 STARLINK-4197,1 52849U 22062V   22286.25001157  .00105122  00000-0  65326-2 0  9996,2 52849  53.2157 206.1334 0002240  35.3520 334.3808 15.08800912 18695,6918.0,95.44,541.414,538.315,0.0
52849.0,STARLINK-4197,PAYLOAD,2022-10-13 14:00:01,15.08921906,0.000215,53.2169,204.6351,39.0308,342.2867,-0.0072483999999999,-0.00114085,0.0,0 STARLINK-4197,1 52849U 22062V   22286.58334491 -.00114085  00000-0 -72484-2 0  9995,2 52849  53.2169 204.6351 0002150  39.0308 342.2867 15.08921906  1305,6917.63,95.432,540.982,538.008,0.0
52849.0,STARLINK-4197,PAYLOAD,2022-10-13 20:00:01,15.08836158,0.0002183,53.2175,203.5123,44.5202,255.6083,0.00010186,1.333e-05,0.0,0 STARLINK-4197,1 52849U 22062V   22286.83335648  .00001333  00000-0  10186-3 0  9999,2 52849  53.2175 203.5123 0002183  44.5202 255.6083 15.08836158 18788,6917.892,95.438,541.2669999999998,538.247,0.0
52849.0,STARLINK-4197,PAYLOAD,2022-10-13 22:00:00,15.08837539,0.0002226,53.2176,203.1389,43.1667,349.7961,-7.8772e-05,-1.542e-05,0.0,0 STARLINK-4197,1 52849U 22062V   22286.91667824 -.00001542  00000-0 -78772-4 0  9992,2 52849  53.2176 203.1389 0002226  43.1667 349.7961 15.08837539  1301,6917.888000000001,95.438,541.293,538.2130000000002,0.0
52849.0,STARLINK-4197,PAYLOAD,2022-10-14 14:00:01,15.08778775,0.0002082,53.2171,200.1456,32.3833,23.7955,0.0055478,0.00088973,0.0,0 STARLINK-4197,1 52849U 22062V   22287.58334491  .00088973  00000-0  55478-2 0  9994,2 52849  53.2171 200.1456 0002082  32.3833  23.7955 15.08778775  1301,6918.068,95.441,541.373,538.492,0.0
